CCSDS_OMM_VERS = 2.0
CREATION_DATE  = 
ORIGINATOR     = 

OBJECT_NAME    = IDEFIX & ARIANE 42P R/B
OBJECT_ID      = 2002-021B
CENTER_NAME    = EARTH
REF_FRAME      = TEME
TIME_SYSTEM    = UTC
MEAN_ELEMENT_THEORY = SGP/SGP4

EPOCH          = 2026-02-28T19:49:06.139200
MEAN_MOTION    = 14.31018644
ECCENTRICITY   = .0011077
INCLINATION    = 98.5860
RA_OF_ASC_NODE = 358.5385
ARG_OF_PERICENTER = 209.2581
MEAN_ANOMALY   = 150.7983

EPHEMERIS_TYPE = 0
CLASSIFICATION_TYPE = U
NORAD_CAT_ID   = 27422
ELEMENT_SET_NO = 999
REV_AT_EPOCH   = 24275
BSTAR          = .12595E-3
MEAN_MOTION_DOT = .288E-5
MEAN_MOTION_DDOT = 0

CCSDS_OMM_VERS = 2.0
CREATION_DATE  = 
ORIGINATOR     = 

OBJECT_NAME    = AQUA
OBJECT_ID      = 2002-022A
CENTER_NAME    = EARTH
REF_FRAME      = TEME
TIME_SYSTEM    = UTC
MEAN_ELEMENT_THEORY = SGP/SGP4

EPOCH          = 2026-02-28T20:23:35.757024
MEAN_MOTION    = 14.61951067
ECCENTRICITY   = .0000747
INCLINATION    = 98.4157
RA_OF_ASC_NODE = 27.0548
ARG_OF_PERICENTER = 51.7056
MEAN_ANOMALY   = 338.4935

EPHEMERIS_TYPE = 0
CLASSIFICATION_TYPE = U
NORAD_CAT_ID   = 27424
ELEMENT_SET_NO = 999
REV_AT_EPOCH   = 26744
BSTAR          = .2408E-3
MEAN_MOTION_DOT = .1157E-4
MEAN_MOTION_DDOT = 0

CCSDS_OMM_VERS = 2.0
CREATION_DATE  = 
ORIGINATOR     = 

OBJECT_NAME    = CZ-4B R/B
OBJECT_ID      = 2002-024C
CENTER_NAME    = EARTH
REF_FRAME      = TEME
TIME_SYSTEM    = UTC
MEAN_ELEMENT_THEORY = SGP/SGP4

EPOCH          = 2026-02-28T17:53:12.686208
MEAN_MOTION    = 14.14545799
ECCENTRICITY   = .0050874
INCLINATION    = 98.8860
RA_OF_ASC_NODE = 113.1962
ARG_OF_PERICENTER = 49.3446
MEAN_ANOMALY   = 59.8861

EPHEMERIS_TYPE = 0
CLASSIFICATION_TYPE = U
NORAD_CAT_ID   = 27432
ELEMENT_SET_NO = 999
REV_AT_EPOCH   = 22797
BSTAR          = .42598E-4
MEAN_MOTION_DOT = .39E-6
MEAN_MOTION_DDOT = 0

CCSDS_OMM_VERS = 2.0
CREATION_DATE  = 
ORIGINATOR     = 

OBJECT_NAME    = MIDORI II (ADEOS-II)
OBJECT_ID      = 2002-056A
CENTER_NAME    = EARTH
REF_FRAME      = TEME
TIME_SYSTEM    = UTC
MEAN_ELEMENT_THEORY = SGP/SGP4

EPOCH          = 2026-02-28T20:14:01.563360
MEAN_MOTION    = 14.29276912
ECCENTRICITY   = .0001887
INCLINATION    = 98.7752
RA_OF_ASC_NODE = 18.2605
ARG_OF_PERICENTER = 55.6507
MEAN_ANOMALY   = 304.4852

EPHEMERIS_TYPE = 0
CLASSIFICATION_TYPE = U
NORAD_CAT_ID   = 27597
ELEMENT_SET_NO = 999
REV_AT_EPOCH   = 20903
BSTAR          = .1365E-3
MEAN_MOTION_DOT = .302E-5
MEAN_MOTION_DDOT = 0

CCSDS_OMM_VERS = 2.0
CREATION_DATE  = 
ORIGINATOR     = 

OBJECT_NAME    = H-2A R/B
OBJECT_ID      = 2002-056E
CENTER_NAME    = EARTH
REF_FRAME      = TEME
TIME_SYSTEM    = UTC
MEAN_ELEMENT_THEORY = SGP/SGP4

EPOCH          = 2026-02-28T20:16:18.202368
MEAN_MOTION    = 14.33753742
ECCENTRICITY   = .0069944
INCLINATION    = 98.3185
RA_OF_ASC_NODE = 20.5478
ARG_OF_PERICENTER = 187.0056
MEAN_ANOMALY   = 235.5888

EPHEMERIS_TYPE = 0
CLASSIFICATION_TYPE = U
NORAD_CAT_ID   = 27601
ELEMENT_SET_NO = 999
REV_AT_EPOCH   = 21284
BSTAR          = .1142E-3
MEAN_MOTION_DOT = .284E-5
MEAN_MOTION_DDOT = 0

CCSDS_OMM_VERS = 2.0
CREATION_DATE  = 
ORIGINATOR     = 

OBJECT_NAME    = CZ-4B R/B
OBJECT_ID      = 2003-049C
CENTER_NAME    = EARTH
REF_FRAME      = TEME
TIME_SYSTEM    = UTC
MEAN_ELEMENT_THEORY = SGP/SGP4

EPOCH          = 2026-02-28T20:33:03.044736
MEAN_MOTION    = 14.55009726
ECCENTRICITY   = .0046999
INCLINATION    = 98.6869
RA_OF_ASC_NODE = 54.4151
ARG_OF_PERICENTER = 258.4553
MEAN_ANOMALY   = 101.1364

EPHEMERIS_TYPE = 0
CLASSIFICATION_TYPE = U
NORAD_CAT_ID   = 28059
ELEMENT_SET_NO = 999
REV_AT_EPOCH   = 18531
BSTAR          = .11759E-3
MEAN_MOTION_DOT = .462E-5
MEAN_MOTION_DDOT = 0

CCSDS_OMM_VERS = 2.0
CREATION_DATE  = 
ORIGINATOR     = 

OBJECT_NAME    = CZ-2C R/B
OBJECT_ID      = 2004-012C
CENTER_NAME    = EARTH
REF_FRAME      = TEME
TIME_SYSTEM    = UTC
MEAN_ELEMENT_THEORY = SGP/SGP4

EPOCH          = 2026-02-28T17:09:55.533312
MEAN_MOTION    = 15.63325943
ECCENTRICITY   = .0013645
INCLINATION    = 97.7259
RA_OF_ASC_NODE = 124.1650
ARG_OF_PERICENTER = 346.2709
MEAN_ANOMALY   = 13.8176

EPHEMERIS_TYPE = 0
CLASSIFICATION_TYPE = U
NORAD_CAT_ID   = 28222
ELEMENT_SET_NO = 999
REV_AT_EPOCH   = 20287
BSTAR          = .59994E-3
MEAN_MOTION_DOT = .55488E-3
MEAN_MOTION_DDOT = 0

CCSDS_OMM_VERS = 2.0
CREATION_DATE  = 
ORIGINATOR     = 

OBJECT_NAME    = SL-16 R/B
OBJECT_ID      = 2004-021B
CENTER_NAME    = EARTH
REF_FRAME      = TEME
TIME_SYSTEM    = UTC
MEAN_ELEMENT_THEORY = SGP/SGP4

EPOCH          = 2026-02-28T19:55:19.813152
MEAN_MOTION    = 14.14599772
ECCENTRICITY   = .0003568
INCLINATION    = 70.9991
RA_OF_ASC_NODE = 251.0862
ARG_OF_PERICENTER = 28.5805
MEAN_ANOMALY   = 331.5512

EPHEMERIS_TYPE = 0
CLASSIFICATION_TYPE = U
NORAD_CAT_ID   = 28353
ELEMENT_SET_NO = 999
REV_AT_EPOCH   = 12158
BSTAR          = .87083E-5
MEAN_MOTION_DOT = -.31E-6
MEAN_MOTION_DDOT = 0

CCSDS_OMM_VERS = 2.0
CREATION_DATE  = 
ORIGINATOR     = 

OBJECT_NAME    = CZ-4B R/B
OBJECT_ID      = 2004-035C
CENTER_NAME    = EARTH
REF_FRAME      = TEME
TIME_SYSTEM    = UTC
MEAN_ELEMENT_THEORY = SGP/SGP4

EPOCH          = 2026-02-28T14:46:59.255040
MEAN_MOTION    = 15.28868978
ECCENTRICITY   = .0032141
INCLINATION    = 97.3518
RA_OF_ASC_NODE = 93.9684
ARG_OF_PERICENTER = 4.3166
MEAN_ANOMALY   = 355.8345

EPHEMERIS_TYPE = 0
CLASSIFICATION_TYPE = U
NORAD_CAT_ID   = 28415
ELEMENT_SET_NO = 999
REV_AT_EPOCH   = 17852
BSTAR          = .29876E-3
MEAN_MOTION_DOT = .8434E-4
MEAN_MOTION_DDOT = 0

CCSDS_OMM_VERS = 2.0
CREATION_DATE  = 
ORIGINATOR     = 

OBJECT_NAME    = CZ-2C R/B
OBJECT_ID      = 2004-046B
CENTER_NAME    = EARTH
REF_FRAME      = TEME
TIME_SYSTEM    = UTC
MEAN_ELEMENT_THEORY = SGP/SGP4

EPOCH          = 2026-02-28T18:58:46.226784
MEAN_MOTION    = 14.26988776
ECCENTRICITY   = .0139353
INCLINATION    = 98.1989
RA_OF_ASC_NODE = 335.3281
ARG_OF_PERICENTER = 180.7044
MEAN_ANOMALY   = 179.3963

EPHEMERIS_TYPE = 0
CLASSIFICATION_TYPE = U
NORAD_CAT_ID   = 28480
ELEMENT_SET_NO = 999
REV_AT_EPOCH   = 10723
BSTAR          = .63333E-4
MEAN_MOTION_DOT = .13E-5
MEAN_MOTION_DDOT = 0

CCSDS_OMM_VERS = 2.0
CREATION_DATE  = 
ORIGINATOR     = 

OBJECT_NAME    = ARIANE 5 R/B
OBJECT_ID      = 2004-049H
CENTER_NAME    = EARTH
REF_FRAME      = TEME
TIME_SYSTEM    = UTC
MEAN_ELEMENT_THEORY = SGP/SGP4

EPOCH          = 2026-02-28T17:45:36.630720
MEAN_MOTION    = 14.85246028
ECCENTRICITY   = .0084588
INCLINATION    = 98.2612
RA_OF_ASC_NODE = 227.8630
ARG_OF_PERICENTER = 20.9123
MEAN_ANOMALY   = 339.5516

EPHEMERIS_TYPE = 0
CLASSIFICATION_TYPE = U
NORAD_CAT_ID   = 28499
ELEMENT_SET_NO = 999
REV_AT_EPOCH   = 14446
BSTAR          = .10004E-3
MEAN_MOTION_DOT = .85E-5
MEAN_MOTION_DDOT = 0

CCSDS_OMM_VERS = 2.0
CREATION_DATE  = 
ORIGINATOR     = 

OBJECT_NAME    = CZ-2D R/B
OBJECT_ID      = 2005-024B
CENTER_NAME    = EARTH
REF_FRAME      = TEME
TIME_SYSTEM    = UTC
MEAN_ELEMENT_THEORY = SGP/SGP4

EPOCH          = 2026-02-28T14:22:22.946016
MEAN_MOTION    = 15.59213031
ECCENTRICITY   = .0007098
INCLINATION    = 97.3606
RA_OF_ASC_NODE = 74.4181
ARG_OF_PERICENTER = 68.7708
MEAN_ANOMALY   = 291.4306

EPHEMERIS_TYPE = 0
CLASSIFICATION_TYPE = U
NORAD_CAT_ID   = 28738
ELEMENT_SET_NO = 999
REV_AT_EPOCH   = 13836
BSTAR          = .49766E-3
MEAN_MOTION_DOT = .39075E-3
MEAN_MOTION_DDOT = 0

