IDEFIX & ARIANE 42P R/B 
1 27422U 02021B   26059.82576550  .00000288  00000+0  12595-3 0  9994
2 27422  98.5860 358.5385 0011077 209.2581 150.7983 14.31018644242750
AQUA                    
1 27424U 02022A   26059.84971941  .00001157  00000+0  24080-3 0  9990
2 27424  98.4157  27.0548 0000747  51.7056 338.4935 14.61951067267441
CZ-4B R/B               
1 27432U 02024C   26059.74528572  .00000039  00000+0  42598-4 0  9991
2 27432  98.8860 113.1962 0050874  49.3446  59.8861 14.14545799227979
MIDORI II (ADEOS-II)    
1 27597U 02056A   26059.84307365  .00000302  00000+0  13650-3 0  9993
2 27597  98.7752  18.2605 0001887  55.6507 304.4852 14.29276912209037
H-2A R/B                
1 27601U 02056E   26059.84465512  .00000284  00000+0  11420-3 0  9990
2 27601  98.3185  20.5478 0069944 187.0056 235.5888 14.33753742212842
CZ-4B R/B               
1 28059U 03049C   26059.85628524  .00000462  00000+0  11759-3 0  9999
2 28059  98.6869  54.4151 0046999 258.4553 101.1364 14.55009726185314
CZ-2C R/B               
1 28222U 04012C   26059.71522608  .00055488  00000+0  59994-3 0  9994
2 28222  97.7259 124.1650 0013645 346.2709  13.8176 15.63325943202872
SL-16 R/B               
1 28353U 04021B   26059.83009043 -.00000031  00000+0  87083-5 0  9992
2 28353  70.9991 251.0862 0003568  28.5805 331.5512 14.14599772121588
CZ-4B R/B               
1 28415U 04035C   26059.61596360  .00008434  00000+0  29876-3 0  9993
2 28415  97.3518  93.9684 0032141   4.3166 355.8345 15.28868978178523
CZ-2C R/B               
1 28480U 04046B   26059.79081281  .00000130  00000+0  63333-4 0  9999
2 28480  98.1989 335.3281 0139353 180.7044 179.3963 14.26988776107230
ARIANE 5 R/B            
1 28499U 04049H   26059.74000730  .00000850  00000+0  10004-3 0  9992
2 28499  98.2612 227.8630 0084588  20.9123 339.5516 14.85246028144461
CZ-2D R/B               
1 28738U 05024B   26059.59887669  .00039075  00000+0  49766-3 0  9997
2 28738  97.3606  74.4181 0007098  68.7708 291.4306 15.59213031138362
